{"type":"FeatureCollection","features":[{"type":"Feature","id":"ottawa","geometry":{"type":"Point","coordinates":[-75.6972,45.4215]},"properties":{"id":"ottawa","title":"Ottawa · city centre","category":"Public city centre","icon":"pin","color":"#E23B3B","imageKey":"pin__pin__e23b3b"}},{"type":"Feature","id":"montreal","geometry":{"type":"Point","coordinates":[-73.5673,45.5019]},"properties":{"id":"montreal","title":"Montréal · centre-ville","category":"Public city centre","icon":"pin","color":"#E23B3B","imageKey":"pin__pin__e23b3b"}},{"type":"Feature","id":"quebec","geometry":{"type":"Point","coordinates":[-71.208,46.8139]},"properties":{"id":"quebec","title":"Québec · centre-ville","category":"Public city centre","icon":"pin","color":"#E23B3B","imageKey":"pin__pin__e23b3b"}}]}